
# Worst residual: 20.85 km
# MJD 58444.000000 (2018 Nov 22  0:00)
2010-050B = RV223A9 = Chang'e 2 hardware
1 99999U 10050B   18326.49919926  .00000000  00000-0  00000-0 2  3547
2 99999 071.8680 028.6125 5646260 327.7969 238.2052 00.04557690    01

# Worst residual: 22.70 km
# MJD 58445.000000 (2018 Nov 23  0:00)
2010-050B = RV223A9 = Chang'e 2 hardware
1 99999U 10050B   18327.49919926  .00000000  00000-0  00000-0 2  3548
2 99999 071.6805 028.6416 5594037 327.6480 254.2876 00.04541291    04

# Worst residual: 23.25 km
# MJD 58446.000000 (2018 Nov 24  0:00)
2010-050B = RV223A9 = Chang'e 2 hardware
1 99999U 10050B   18328.49919926  .00000000  00000-0  00000-0 2  3549
2 99999 071.4639 028.6462 5547957 327.4539 270.3811 00.04528074    02

# Worst residual: 22.39 km
# MJD 58447.000000 (2018 Nov 25  0:00)
2010-050B = RV223A9 = Chang'e 2 hardware
1 99999U 10050B   18329.49919926  .00000000  00000-0  00000-0 2  3540
2 99999 071.2433 028.6161 5510955 327.2438 286.5079 00.04518541    05

# Worst residual: 19.73 km
# MJD 58448.000000 (2018 Nov 26  0:00)
2010-050B = RV223A9 = Chang'e 2 hardware
1 99999U 10050B   18330.49919926  .00000000  00000-0  00000-0 2  3542
2 99999 071.0491 028.5503 5484932 327.0575 302.6744 00.04513025    02

# Worst residual: 15.51 km
# MJD 58449.000000 (2018 Nov 27  0:00)
2010-050B = RV223A9 = Chang'e 2 hardware
1 99999U 10050B   18331.49919926  .00000000  00000-0  00000-0 2  3543
2 99999 070.9098 028.4600 5469870 326.9381 318.8714 00.04511738    02

# Worst residual: 10.64 km
# MJD 58450.000000 (2018 Nov 28  0:00)
2010-050B = RV223A9 = Chang'e 2 hardware
1 99999U 10050B   18332.49919926  .00000000  00000-0  00000-0 2  3544
2 99999 070.8409 028.3688 5463091 326.9054 335.0892 00.04514040    05

# Worst residual: 5.73 km
# MJD 58451.000000 (2018 Nov 29  0:00)
2010-050B = RV223A9 = Chang'e 2 hardware
1 99999U 10050B   18333.49919926  .00000000  00000-0  00000-0 2  3545
2 99999 070.8344 028.3048 5462204 326.9061 351.3420 00.04514180    09

# Worst residual: 6.13 km
# MJD 58452.000000 (2018 Nov 30  0:00)
2010-050B = RV223A9 = Chang'e 2 hardware
1 99999U 10050B   18334.49919926  .00000000  00000-0  00000-0 2  3546
2 99999 070.8545 028.2854 5468305 326.8706 007.5880 00.04505066    02

# Worst residual: 9.11 km
# MJD 58453.000000 (2018 Dec  1  0:00)
2010-050B = RV223A9 = Chang'e 2 hardware
1 99999U 10050B   18335.49919926  .00000000  00000-0  00000-0 2  3547
2 99999 070.8611 028.2867 5469591 326.7261 023.8569 00.04509265    03

# Worst residual: 11.56 km
# MJD 58454.000000 (2018 Dec  2  0:00)
2010-050B = RV223A9 = Chang'e 2 hardware
1 99999U 10050B   18336.49919926  .00000000  00000-0  00000-0 2  3548
2 99999 070.8540 028.2737 5467502 326.3765 040.3737 00.04534686    01

# Worst residual: 13.20 km
# MJD 58455.000000 (2018 Dec  3  0:00)
2010-050B = RV223A9 = Chang'e 2 hardware
1 99999U 10050B   18337.49919926  .00000000  00000-0  00000-0 2  3549
2 99999 070.8476 028.2358 5470694 325.8858 057.2086 00.04570814    08

# Worst residual: 13.95 km
# MJD 58456.000000 (2018 Dec  4  0:00)
2010-050B = RV223A9 = Chang'e 2 hardware
1 99999U 10050B   18338.49919926  .00000000  00000-0  00000-0 2  3540
2 99999 070.8517 028.1731 5481964 325.3494 074.3247 00.04609495    08

# Worst residual: 13.84 km
# MJD 58457.000000 (2018 Dec  5  0:00)
2010-050B = RV223A9 = Chang'e 2 hardware
1 99999U 10050B   18339.49919926  .00000000  00000-0  00000-0 2  3541
2 99999 070.8728 028.0887 5500383 324.8390 091.6520 00.04646009    07

# Worst residual: 13.08 km
# MJD 58458.000000 (2018 Dec  6  0:00)
2010-050B = RV223A9 = Chang'e 2 hardware
1 99999U 10050B   18340.49919926  .00000000  00000-0  00000-0 2  3543
2 99999 070.9146 027.9872 5523353 324.3993 109.1148 00.04677756    04

# Worst residual: 13.03 km
# MJD 58459.000000 (2018 Dec  7  0:00)
2010-050B = RV223A9 = Chang'e 2 hardware
1 99999U 10050B   18341.49919926  .00000000  00000-0  00000-0 2  3544
2 99999 070.9786 027.8750 5547705 324.0513 126.6441 00.04703443    03

# Worst residual: 12.37 km
# MJD 58460.000000 (2018 Dec  8  0:00)
2010-050B = RV223A9 = Chang'e 2 hardware
1 99999U 10050B   18342.49919926  .00000000  00000-0  00000-0 2  3545
2 99999 071.0627 027.7605 5570389 323.7969 144.1831 00.04722642    02

# Worst residual: 11.09 km
# MJD 58461.000000 (2018 Dec  9  0:00)
2010-050B = RV223A9 = Chang'e 2 hardware
1 99999U 10050B   18343.49919926  .00000000  00000-0  00000-0 2  3546
2 99999 071.1614 027.6526 5588959 323.6246 161.6884 00.04735525    05

# Worst residual: 9.27 km
# MJD 58462.000000 (2018 Dec 10  0:00)
2010-050B = RV223A9 = Chang'e 2 hardware
1 99999U 10050B   18344.49919926  .00000000  00000-0  00000-0 2  3547
2 99999 071.2664 027.5594 5601801 323.5150 179.1293 00.04742686    04

# Worst residual: 6.99 km
# MJD 58463.000000 (2018 Dec 11  0:00)
2010-050B = RV223A9 = Chang'e 2 hardware
1 99999U 10050B   18345.49919926  .00000000  00000-0  00000-0 2  3548
2 99999 071.3679 027.4866 5608189 323.4467 196.4851 00.04745020    05

# Worst residual: 4.36 km
# MJD 58464.000000 (2018 Dec 12  0:00)
2010-050B = RV223A9 = Chang'e 2 hardware
1 99999U 10050B   18346.49919926  .00000000  00000-0  00000-0 2  3549
2 99999 071.4554 027.4367 5608212 323.3999 213.7434 00.04743655    02

# Worst residual: 3.79 km
# MJD 58465.000000 (2018 Dec 13  0:00)
2010-050B = RV223A9 = Chang'e 2 hardware
1 99999U 10050B   18347.49919926  .00000000  00000-0  00000-0 2  3540
2 99999 071.5198 027.4088 5602618 323.3600 230.8989 00.04739926    01

# Worst residual: 3.77 km
# MJD 58466.000000 (2018 Dec 14  0:00)
2010-050B = RV223A9 = Chang'e 2 hardware
1 99999U 10050B   18348.49919926  .00000000  00000-0  00000-0 2  3541
2 99999 071.5542 027.3984 5592643 323.3195 247.9520 00.04735401    07

# Worst residual: 5.07 km
# MJD 58467.000000 (2018 Dec 15  0:00)
2010-050B = RV223A9 = Chang'e 2 hardware
1 99999U 10050B   18349.49919926  .00000000  00000-0  00000-0 2  3542
2 99999 071.5550 027.3980 5579782 323.2803 264.9098 00.04731929    06

# Worst residual: 8.05 km
# MJD 58468.000000 (2018 Dec 16  0:00)
2010-050B = RV223A9 = Chang'e 2 hardware
1 99999U 10050B   18350.49919926  .00000000  00000-0  00000-0 2  3544
2 99999 071.5234 027.3976 5565552 323.2547 281.7869 00.04731764    05
